{
    "links": {
        "self": "http://www.neowsapp.com/rest/v1/neo/3830866?api_key=iIulBulltgU6a56xZRHN4H3l9WmuAYTsLGpBGhQ2"
    },
    "id": "3830866",
    "neo_reference_id": "3830866",
    "name": "(2018 SQ1)",
    "designation": "2018 SQ1",
    "nasa_jpl_url": "http://ssd.jpl.nasa.gov/sbdb.cgi?sstr=3830866",
    "absolute_magnitude_h": 26.6,
    "estimated_diameter": {
        "kilometers": {
            "estimated_diameter_min": 0.0127219879,
            "estimated_diameter_max": 0.0284472297
        },
        "meters": {
            "estimated_diameter_min": 12.7219878539,
            "estimated_diameter_max": 28.4472296503
        },
        "miles": {
            "estimated_diameter_min": 0.0079050743,
            "estimated_diameter_max": 0.0176762835
        },
        "feet": {
            "estimated_diameter_min": 41.7388066307,
            "estimated_diameter_max": 93.330808926
        }
    },
    "is_potentially_hazardous_asteroid": false,
    "close_approach_data": [
        {
            "close_approach_date": "2018-07-16",
            "close_approach_date_full": "2018-Jul-16 21:08",
            "epoch_date_close_approach": 1531775280000,
            "relative_velocity": {
                "kilometers_per_second": "19.3136701005",
                "kilometers_per_hour": "69529.2123617104",
                "miles_per_hour": "43202.7486477528"
            },
            "miss_distance": {
                "astronomical": "0.1325416904",
                "lunar": "51.5587175656",
                "kilometers": "19827954.570039448",
                "miles": "12320519.6597344624"
            },
            "orbiting_body": "Venus"
        },
        {
            "close_approach_date": "2018-09-20",
            "close_approach_date_full": "2018-Sep-20 03:37",
            "epoch_date_close_approach": 1537414620000,
            "relative_velocity": {
                "kilometers_per_second": "18.7215524483",
                "kilometers_per_hour": "67397.5888137634",
                "miles_per_hour": "41878.2406715298"
            },
            "miss_distance": {
                "astronomical": "0.0050385863",
                "lunar": "1.9600100707",
                "kilometers": "753761.778291181",
                "miles": "468365.8506170578"
            },
            "orbiting_body": "Earth"
        },
        {
            "close_approach_date": "2018-09-20",
            "close_approach_date_full": "2018-Sep-20 06:57",
            "epoch_date_close_approach": 1537426620000,
            "relative_velocity": {
                "kilometers_per_second": "17.8844847883",
                "kilometers_per_hour": "64384.1452380197",
                "miles_per_hour": "40005.8040230351"
            },
            "miss_distance": {
                "astronomical": "0.0074102017",
                "lunar": "2.8825684613",
                "kilometers": "1108550.390590379",
                "miles": "688821.2716460702"
            },
            "orbiting_body": "Moon"
        }
    ],
    "orbital_data": {
        "orbit_id": "1",
        "orbit_determination_date": "2018-09-22 12:42:03",
        "first_observation_date": "2018-09-21",
        "last_observation_date": "2018-09-22",
        "data_arc_in_days": 1,
        "observations_used": 22,
        "orbit_uncertainty": "8",
        "minimum_orbit_intersection": ".000827608",
        "jupiter_tisserand_invariant": "3.431",
        "epoch_osculation": "2458383.5",
        "eccentricity": ".6671766142238145",
        "semi_major_axis": "2.087923350234378",
        "inclination": "5.724084487752778",
        "ascending_node_longitude": "176.7500465824867",
        "orbital_period": "1101.971223696361",
        "perihelion_distance": ".6949097186661622",
        "perihelion_argument": "103.7939870790597",
        "aphelion_distance": "3.480936981802595",
        "perihelion_time": "2458336.073209022077",
        "mean_anomaly": "15.49373013097552",
        "mean_motion": ".3266872965996751",
        "equinox": "J2000",
        "orbit_class": {
            "orbit_class_type": "APO",
            "orbit_class_description": "Near-Earth asteroid orbits which cross the Earth’s orbit similar to that of 1862 Apollo",
            "orbit_class_range": "a (semi-major axis) > 1.0 AU; q (perihelion) < 1.017 AU"
        }
    },
    "is_sentry_object": false
}